GLOBALSTAR M075         
1 37192U 10054E   25004.35478681 -.00000068  00000+0  20042-3 0  9990
2 37192  51.9966 320.3709 0000587  57.2492 107.7461 12.62271097655158
GLOBALSTAR M073         
1 37193U 10054F   25004.56313552 -.00000087  00000+0  92599-4 0  9997
2 37193  52.0039 233.4314 0000986  66.8441 325.0595 12.62262060657178
GLOBALSTAR M083         
1 37739U 11033A   25004.58594727 -.00000095  00000+0  46687-4 0  9994
2 37739  51.9830 182.3151 0000898 100.1351 335.7697 12.62270367626194
GLOBALSTAR M088         
1 37740U 11033B   25004.40177281 -.00000073  00000+0  16999-3 0  9997
2 37740  51.9737  88.5043 0000640 133.8771 305.0881 12.62266995621713
GLOBALSTAR M091         
1 37741U 11033C   25004.59251404 -.00000087  00000+0  92489-4 0  9992
2 37741  52.0010  51.1874 0000466 166.1519 359.1988 12.62272372622527
GLOBALSTAR M085         
1 37742U 11033D   25004.41674946 -.00000090  00000+0  74577-4 0  9996
2 37742  51.9888   2.9050 0000119 140.2498   6.6114 12.62263500623016
GLOBALSTAR M081         
1 37743U 11033E   25004.52343644 -.00000088  00000+0  90108-4 0  9992
2 37743  51.9978   5.2645 0000166 350.2743 162.5520 12.62274934623174
GLOBALSTAR M089         
1 37744U 11033F   25004.64655226 -.00000072  00000+0  17606-3 0  9992
2 37744  51.9950 319.1508 0000775  43.0071 128.5825 12.62274567624035
